{
  "type": "FeatureCollection",
  "features": [
    {
      "type": "Feature",
      "properties": {
        "norad_id": 34540,
        "name": "IRIDIUM 33 DEB",
        "group": "iridium-33-debris",
        "lat": 82.68301807461611,
        "lon": -21.389079590605434,
        "alt_km": 635.3642912706282,
        "timestamp": "2025-12-10T21:43:22.476028+00:00",
        "meta_object_name": "IRIDIUM 33 DEB",
        "meta_object_id": "1997-051JH",
        "meta_epoch": "2025-12-10T09:02:54.464064",
        "meta_mean_motion": 14.75237983,
        "meta_eccentricity": 0.00160091,
        "meta_inclination": 86.3107,
        "meta_ra_of_asc_node": 308.6869,
        "meta_arg_of_pericenter": 167.5274,
        "meta_mean_anomaly": 353.4924,
        "meta_ephemeris_type": 0,
        "meta_classification_type": "U",
        "meta_norad_cat_id": 34540,
        "meta_element_set_no": 999,
        "meta_rev_at_epoch": 88986,
        "meta_bstar": 0.0024707638,
        "meta_mean_motion_dot": 0.00016789,
        "meta_mean_motion_ddot": 0,
        "tle_line1": "1 34540U 97051JH  25344.37701926  .00016789  00000+0  24708-2 0  9994",
        "tle_line2": "2 34540  86.3107 308.6869 0016009 167.5274 353.4924 14.75237983889869"
      },
      "geometry": {
        "type": "Point",
        "coordinates": [
          -21.389079590605434,
          82.68301807461611
        ]
      }
    },
    {
      "type": "Feature",
      "properties": {
        "norad_id": 34648,
        "name": "IRIDIUM 33 DEB",
        "group": "iridium-33-debris",
        "lat": -68.60109115589309,
        "lon": -86.5816199657259,
        "alt_km": 732.756092335615,
        "timestamp": "2025-12-10T21:43:22.476043+00:00",
        "meta_object_name": "IRIDIUM 33 DEB",
        "meta_object_id": "1997-051JZ",
        "meta_epoch": "2025-12-10T13:31:51.923424",
        "meta_mean_motion": 14.11387502,
        "meta_eccentricity": 0.01834177,
        "meta_inclination": 86.3907,
        "meta_ra_of_asc_node": 282.8249,
        "meta_arg_of_pericenter": 305.6711,
        "meta_mean_anomaly": 52.7515,
        "meta_ephemeris_type": 0,
        "meta_classification_type": "U",
        "meta_norad_cat_id": 34648,
        "meta_element_set_no": 999,
        "meta_rev_at_epoch": 84930,
        "meta_bstar": 0.012722897,
        "meta_mean_motion_dot": 0.00027053,
        "meta_mean_motion_ddot": 0,
        "tle_line1": "1 34648U 97051JZ  25344.56379541  .00027053  00000+0  12723-1 0  9997",
        "tle_line2": "2 34648  86.3907 282.8249 0183417 305.6711  52.7515 14.11387502849303"
      },
      "geometry": {
        "type": "Point",
        "coordinates": [
          -86.5816199657259,
          -68.60109115589309
        ]
      }
    },
    {
      "type": "Feature",
      "properties": {
        "norad_id": 34651,
        "name": "IRIDIUM 33 DEB",
        "group": "iridium-33-debris",
        "lat": -75.49926338066086,
        "lon": -24.092108538623226,
        "alt_km": 741.9015504164263,
        "timestamp": "2025-12-10T21:43:22.476055+00:00",
        "meta_object_name": "IRIDIUM 33 DEB",
        "meta_object_id": "1997-051KC",
        "meta_epoch": "2025-12-10T10:25:16.423968",
        "meta_mean_motion": 14.25753499,
        "meta_eccentricity": 0.01420393,
        "meta_inclination": 86.2848,
        "meta_ra_of_asc_node": 141.558,
        "meta_arg_of_pericenter": 211.2926,
        "meta_mean_anomaly": 147.9755,
        "meta_ephemeris_type": 0,
        "meta_classification_type": "U",
        "meta_norad_cat_id": 34651,
        "meta_element_set_no": 999,
        "meta_rev_at_epoch": 85863,
        "meta_bstar": 0.0053939634,
        "meta_mean_motion_dot": 0.00014272,
        "meta_mean_motion_ddot": 0,
        "tle_line1": "1 34651U 97051KC  25344.43421787  .00014272  00000+0  53940-2 0  9993",
        "tle_line2": "2 34651  86.2848 141.5580 0142039 211.2926 147.9755 14.25753499858630"
      },
      "geometry": {
        "type": "Point",
        "coordinates": [
          -24.092108538623226,
          -75.49926338066086
        ]
      }
    },
    {
      "type": "Feature",
      "properties": {
        "norad_id": 34652,
        "name": "IRIDIUM 33 DEB",
        "group": "iridium-33-debris",
        "lat": 66.75668785748377,
        "lon": -10.59042782747177,
        "alt_km": 689.9375931864097,
        "timestamp": "2025-12-10T21:43:22.476065+00:00",
        "meta_object_name": "IRIDIUM 33 DEB",
        "meta_object_id": "1997-051KD",
        "meta_epoch": "2025-12-09T11:37:22.959264",
        "meta_mean_motion": 14.62008914,
        "meta_eccentricity": 0.00262076,
        "meta_inclination": 86.3314,
        "meta_ra_of_asc_node": 341.4507,
        "meta_arg_of_pericenter": 310.1115,
        "meta_mean_anomaly": 203.3524,
        "meta_ephemeris_type": 0,
        "meta_classification_type": "U",
        "meta_norad_cat_id": 34652,
        "meta_element_set_no": 999,
        "meta_rev_at_epoch": 88436,
        "meta_bstar": 0.0015009226,
        "meta_mean_motion_dot": 7.584e-05,
        "meta_mean_motion_ddot": 0,
        "tle_line1": "1 34652U 97051KD  25343.48429351  .00007584  00000+0  15009-2 0  9995",
        "tle_line2": "2 34652  86.3314 341.4507 0026207 310.1115 203.3524 14.62008914884363"
      },
      "geometry": {
        "type": "Point",
        "coordinates": [
          -10.59042782747177,
          66.75668785748377
        ]
      }
    },
    {
      "type": "Feature",
      "properties": {
        "norad_id": 34690,
        "name": "IRIDIUM 33 DEB",
        "group": "iridium-33-debris",
        "lat": -24.62973519424792,
        "lon": 36.1244821060928,
        "alt_km": 710.7550007472546,
        "timestamp": "2025-12-10T21:43:22.476076+00:00",
        "meta_object_name": "IRIDIUM 33 DEB",
        "meta_object_id": "1997-051KM",
        "meta_epoch": "2025-12-10T14:17:14.835840",
        "meta_mean_motion": 14.55083084,
        "meta_eccentricity": 0.00111014,
        "meta_inclination": 86.378,
        "meta_ra_of_asc_node": 37.9232,
        "meta_arg_of_pericenter": 36.03,
        "meta_mean_anomaly": 117.6753,
        "meta_ephemeris_type": 0,
        "meta_classification_type": "U",
        "meta_norad_cat_id": 34690,
        "meta_element_set_no": 999,
        "meta_rev_at_epoch": 88063,
        "meta_bstar": 0.0006672646,
        "meta_mean_motion_dot": 2.9e-05,
        "meta_mean_motion_ddot": 0,
        "tle_line1": "1 34690U 97051KM  25344.59531060  .00002900  00000+0  66726-3 0  9991",
        "tle_line2": "2 34690  86.3780  37.9232 0011101  36.0300 117.6753 14.55083084880631"
      },
      "geometry": {
        "type": "Point",
        "coordinates": [
          36.1244821060928,
          -24.62973519424792
        ]
      }
    },
    {
      "type": "Feature",
      "properties": {
        "norad_id": 34693,
        "name": "IRIDIUM 33 DEB",
        "group": "iridium-33-debris",
        "lat": -84.1971289623688,
        "lon": 164.21815380413165,
        "alt_km": 500.128320980416,
        "timestamp": "2025-12-10T21:43:22.476086+00:00",
        "meta_object_name": "IRIDIUM 33 DEB",
        "meta_object_id": "1997-051KQ",
        "meta_epoch": "2025-12-10T08:38:30.910272",
        "meta_mean_motion": 15.27015384,
        "meta_eccentricity": 0.00144202,
        "meta_inclination": 86.3054,
        "meta_ra_of_asc_node": 305.0067,
        "meta_arg_of_pericenter": 56.9182,
        "meta_mean_anomaly": 94.3145,
        "meta_ephemeris_type": 0,
        "meta_classification_type": "U",
        "meta_norad_cat_id": 34693,
        "meta_element_set_no": 999,
        "meta_rev_at_epoch": 88878,
        "meta_bstar": 0.0067186448,
        "meta_mean_motion_dot": 0.00182624,
        "meta_mean_motion_ddot": 0,
        "tle_line1": "1 34693U 97051KQ  25344.36007998  .00182624  00000+0  67186-2 0  9999",
        "tle_line2": "2 34693  86.3054 305.0067 0014420  56.9182  94.3145 15.27015384888787"
      },
      "geometry": {
        "type": "Point",
        "coordinates": [
          164.21815380413165,
          -84.1971289623688
        ]
      }
    },
    {
      "type": "Feature",
      "properties": {
        "norad_id": 34696,
        "name": "IRIDIUM 33 DEB",
        "group": "iridium-33-debris",
        "lat": 47.52652422195515,
        "lon": 32.555761169168164,
        "alt_km": 703.6208324113522,
        "timestamp": "2025-12-10T21:43:22.476097+00:00",
        "meta_object_name": "IRIDIUM 33 DEB",
        "meta_object_id": "1997-051KT",
        "meta_epoch": "2025-12-10T13:59:57.596928",
        "meta_mean_motion": 14.64908761,
        "meta_eccentricity": 0.00741961,
        "meta_inclination": 86.1846,
        "meta_ra_of_asc_node": 28.5251,
        "meta_arg_of_pericenter": 174.7781,
        "meta_mean_anomaly": 337.5874,
        "meta_ephemeris_type": 0,
        "meta_classification_type": "U",
        "meta_norad_cat_id": 34696,
        "meta_element_set_no": 999,
        "meta_rev_at_epoch": 86641,
        "meta_bstar": 0.0079044921,
        "meta_mean_motion_dot": 0.00044251,
        "meta_mean_motion_ddot": 0,
        "tle_line1": "1 34696U 97051KT  25344.58330552  .00044251  00000+0  79045-2 0  9991",
        "tle_line2": "2 34696  86.1846  28.5251 0074196 174.7781 337.5874 14.64908761866416"
      },
      "geometry": {
        "type": "Point",
        "coordinates": [
          32.555761169168164,
          47.52652422195515
        ]
      }
    }
  ]
}